IRIDIUM 57 [-]          
1 25273U 98019B   23256.91104777  .00000614  00000+0  20931-3 0  9998
2 25273  86.3940  54.1911 0002091  91.2783 268.8653 14.34893120332656
IRIDIUM 63 [-]          
1 25286U 98021B   23256.75655872  .00000618  00000+0  20864-3 0  9993
2 25286  86.4048 351.2177 0002113  98.6740 261.4696 14.35402571331656
IRIDIUM 69 [-]          
1 25319U 98026A   23256.86773433  .00000921  00000+0  28907-3 0  9994
2 25319  86.4046   6.3456 0002397  34.7608 325.3747 14.39554505330618
IRIDIUM 71 [-]          
1 25320U 98026B   23256.86085908  .00000788  00000+0  24447-3 0  9995
2 25320  86.4040   1.1916 0003892  69.3221 290.8395 14.39897633331128
IRIDIUM 73 [-]          
1 25344U 98032C   23257.14226738  .00000733  00000+0  18404-3 0  9994
2 25344  86.4435 318.9797 0002275  75.5069 284.6388 14.50015416337775
IRIDIUM 82 [-]          
1 25467U 98051A   23256.93352607  .00019537  00000+0  11710-2 0  9996
2 25467  86.3932  56.0010 0149829 152.4859 208.4411 15.01818526326767
IRIDIUM 2 [-]           
1 25527U 98066A   23257.08035720  .00032312  00000+0  82176-3 0  9991
2 25527  85.5183 117.5685 0004413 340.7587  19.3497 15.39450341364339
